NORAD_CAT_ID,OBJECT_NAME,OBJECT_TYPE,EPOCH,MEAN_MOTION,ECCENTRICITY,INCLINATION,RA_OF_ASC_NODE,ARG_OF_PERICENTER,MEAN_ANOMALY,BSTAR,MEAN_MOTION_DOT,MEAN_MOTION_DDOT,TLE_LINE0,TLE_LINE1,TLE_LINE2,SEMIMAJOR_AXIS,PERIOD,APOGEE,PERIGEE,DECAYED
54208.0,STARLINK-5255,PAYLOAD,2023-03-01 22:00:00,15.49773151,0.0001176,53.2112,246.7517,81.6561,115.8193,-0.019613,-0.0101124,0.0,0 STARLINK-5255,1 54208U 22141BD  23060.91667824 -.01011240  00000-0 -19613-1 0  9995,2 54208  53.2112 246.7517 0001176  81.6561 115.8193 15.49773151 19909,6795.526,92.917,418.19,416.592,0.0
54208.0,STARLINK-5255,PAYLOAD,2023-03-02 00:00:00,15.49606838,9.72e-05,53.2108,246.3534,79.2303,223.4084,-0.020451,-0.01044864,0.0,0 STARLINK-5255,1 54208U 22141BD  23061.00001157 -.01044864  00000-0 -20451-1 0  9997,2 54208  53.2108 246.3534 0000972  79.2303 223.4084 15.49606838  1306,6796.012,92.927,418.538,417.217,0.0
54208.0,STARLINK-5255,PAYLOAD,2023-03-02 20:00:01,15.47686986,0.0001173,53.211,242.3776,84.89,186.342,-0.021345,-0.0102139,0.0,0 STARLINK-5255,1 54208U 22141BD  23061.83334491 -.01021390  00000-0 -21345-1 0  9990,2 54208  53.2110 242.3776 0001173  84.8900 186.3420 15.47686986 20056,6801.631,93.042,424.294,422.698,0.0
54208.0,STARLINK-5255,PAYLOAD,2023-03-03 10:00:00,15.46364095,0.0001157,53.2111,239.5992,92.5734,189.2698,-0.022374,-0.01022251,0.0,0 STARLINK-5255,1 54208U 22141BD  23062.41667824 -.01022251  00000-0 -22374-1 0  9994,2 54208  53.2111 239.5992 0001157  92.5734 189.2698 15.46364095 20140,6805.51,93.122,428.162,426.587,0.0
54208.0,STARLINK-5255,PAYLOAD,2023-03-03 14:00:01,15.46029453,0.0001239,53.2114,238.8078,80.8927,49.1718,-0.024605,-0.01118754,0.0,0 STARLINK-5255,1 54208U 22141BD  23062.58334491 -.01118754  00000-0 -24605-1 0  9996,2 54208  53.2114 238.8078 0001239  80.8927  49.1718 15.46029453  1305,6806.492,93.142,429.2,427.514,0.0
54208.0,STARLINK-5255,PAYLOAD,2023-03-03 22:00:00,15.45222206,0.0001349,53.2113,237.2264,71.5679,114.2918,-0.023123,-0.01016199,0.0,0 STARLINK-5255,1 54208U 22141BD  23062.91667824 -.01016199  00000-0 -23123-1 0  9996,2 54208  53.2113 237.2264 0001349  71.5679 114.2918 15.45222206 20214,6808.862,93.19,431.646,429.809,0.0
54208.0,STARLINK-5255,PAYLOAD,2023-03-04 14:00:01,15.4374567,0.0001189,53.2114,234.0642,82.42,212.2582,-0.02641,-0.01110922,0.0,0 STARLINK-5255,1 54208U 22141BD  23063.58334491 -.01110922  00000-0 -26410-1 0  9992,2 54208  53.2114 234.0642 0001189  82.4200 212.2582 15.43745670 20324,6813.203,93.28,435.878,434.258,0.0
54208.0,STARLINK-5255,PAYLOAD,2023-03-04 22:00:00,15.42950311,0.0001188,53.2112,232.4881,68.7433,278.9885,-0.025316,-0.01028243,0.0,0 STARLINK-5255,1 54208U 22141BD  23063.91667824 -.01028243  00000-0 -25316-1 0  9996,2 54208  53.2112 232.4881 0001188  68.7433 278.9885 15.42950311  1304,6815.544,93.328,438.219,436.6,0.0
54208.0,STARLINK-5255,PAYLOAD,2023-03-05 04:00:01,15.42393113,0.0001277,53.211,231.3045,85.5616,211.4208,-0.026834,-0.01080803,0.0,0 STARLINK-5255,1 54208U 22141BD  23064.16668981 -.01080803  00000-0 -26834-1 0  9995,2 54208  53.2110 231.3045 0001277  85.5616 211.4208 15.42393113 20416,6817.186,93.361,439.921,438.18,0.0
54208.0,STARLINK-5255,PAYLOAD,2023-03-05 14:00:01,15.41462681,0.0001256,53.211,229.3371,81.3765,9.701,-0.028365,-0.01105084,0.0,0 STARLINK-5255,1 54208U 22141BD  23064.58334491 -.01105084  00000-0 -28365-1 0  9997,2 54208  53.2110 229.3371 0001256  81.3765   9.7010 15.41462681  1303,6819.929,93.418,442.65,440.937,0.0
54208.0,STARLINK-5255,PAYLOAD,2023-03-05 22:00:00,15.40672994,0.0001389,53.2105,227.7661,71.4289,69.9631,-0.027407,-0.01045032,0.0,0 STARLINK-5255,1 54208U 22141BD  23064.91667824 -.01045032  00000-0 -27407-1 0  9995,2 54208  53.2105 227.7661 0001389  71.4289  69.9631 15.40672994  1305,6822.259,93.466,445.071,443.176,0.0
54208.0,STARLINK-5255,PAYLOAD,2023-03-06 06:00:00,15.39889616,0.0001312,53.2104,226.1939,83.8172,106.98,-0.0272,-0.00999721,0.0,0 STARLINK-5255,1 54208U 22141BD  23065.25001157 -.00999721  00000-0 -27200-1 0  9997,2 54208  53.2104 226.1939 0001312  83.8172 106.9800 15.39889616 20578,6824.572,93.513,447.333,445.542,0.0
54208.0,STARLINK-5255,PAYLOAD,2023-03-06 22:00:00,15.38396767,0.0001239,53.2103,223.0604,76.7288,210.1086,-0.029703,-0.01049949,0.0,0 STARLINK-5255,1 54208U 22141BD  23065.91667824 -.01049949  00000-0 -29703-1 0  9998,2 54208  53.2103 223.0604 0001239  76.7288 210.1086 15.38396767 20684,6828.987,93.604,451.698,450.006,0.0
54208.0,STARLINK-5255,PAYLOAD,2023-03-07 14:00:01,15.36894647,0.0001181,53.2109,219.9313,78.1211,301.1142,-0.032489,-0.01089841,0.0,0 STARLINK-5255,1 54208U 22141BD  23066.58334491 -.01089841  00000-0 -32489-1 0  9993,2 54208  53.2109 219.9313 0001181  78.1211 301.1142 15.36894647 20782,6833.436,93.695,456.108,454.494,0.0
54208.0,STARLINK-5255,PAYLOAD,2023-03-07 22:00:00,15.36123279,0.0001311,53.2107,218.3709,66.8376,357.2286,-0.032197,-0.01056285,0.0,0 STARLINK-5255,1 54208U 22141BD  23066.91667824 -.01056285  00000-0 -32197-1 0  9991,2 54208  53.2107 218.3709 0001311  66.8376 357.2286 15.36123279  1307,6835.723,93.742,458.484,456.692,0.0
54208.0,STARLINK-5255,PAYLOAD,2023-03-08 22:00:00,15.33852838,0.0001432,53.2115,213.6977,80.9305,112.1487,-0.035092,-0.01069188,0.0,0 STARLINK-5255,1 54208U 22141BD  23067.91667824 -.01069188  00000-0 -35092-1 0  9995,2 54208  53.2115 213.6977 0001432  80.9305 112.1487 15.33852838 20987,6842.467,93.881,465.312,463.352,0.0
54208.0,STARLINK-5255,PAYLOAD,2023-03-09 22:00:00,15.31583256,0.0001253,53.2121,209.0406,81.7422,232.1376,-0.038313,-0.01084939,0.0,0 STARLINK-5255,1 54208U 22141BD  23068.91667824 -.01084939  00000-0 -38313-1 0  9996,2 54208  53.2121 209.0406 0001253  81.7422 232.1376 15.31583256 21142,6849.225,94.02,471.948,470.232,0.0
54208.0,STARLINK-5255,PAYLOAD,2023-03-10 00:00:00,15.3140708,0.0001308,53.2123,208.6527,77.3383,336.2358,-0.039729,-0.01115959,0.0,0 STARLINK-5255,1 54208U 22141BD  23069.00001157 -.01115959  00000-0 -39729-1 0  9997,2 54208  53.2123 208.6527 0001308  77.3383 336.2358 15.31407080  1303,6849.75,94.031,472.511,470.719,0.0
54208.0,STARLINK-5255,PAYLOAD,2023-03-10 22:00:00,15.29306295,0.0001279,53.2126,204.3998,77.9829,348.4859,-0.041254,-0.01087826,0.0,0 STARLINK-5255,1 54208U 22141BD  23069.91667824 -.01087826  00000-0 -41254-1 0  9993,2 54208  53.2126 204.3998 0001279  77.9829 348.4859 15.29306295  1303,6856.022,94.16,478.764,477.01,0.0
54208.0,STARLINK-5255,PAYLOAD,2023-03-11 06:00:00,15.28512215,0.000131,53.2129,202.8548,88.1087,14.0793,-0.04002,-0.01034313,0.0,0 STARLINK-5255,1 54208U 22141BD  23070.25001157 -.01034313  00000-0 -40020-1 0  9996,2 54208  53.2129 202.8548 0001310  88.1087  14.0793 15.28512215 21345,6858.396,94.209,481.16,479.363,0.0
54208.0,STARLINK-5255,PAYLOAD,2023-03-11 14:00:01,15.27768472,0.0001429,53.213,201.3146,81.1388,55.9015,-0.042514,-0.01070685,0.0,0 STARLINK-5255,1 54208U 22141BD  23070.58335648 -.01070685  00000-0 -42514-1 0  9999,2 54208  53.2130 201.3146 0001429  81.1388  55.9015 15.27768472  1305,6860.622,94.255,483.467,481.506,0.0
54208.0,STARLINK-5255,PAYLOAD,2023-03-11 22:00:00,15.27034378,0.000145,53.2129,199.7751,76.8054,94.0384,-0.04477,-0.01099752,0.0,0 STARLINK-5255,1 54208U 22141BD  23070.91667824 -.01099752  00000-0 -44770-1 0  9992,2 54208  53.2129 199.7751 0001450  76.8054  94.0384 15.27034378 21441,6862.82,94.3,485.68,483.69,0.0
54208.0,STARLINK-5255,PAYLOAD,2023-03-12 14:00:01,15.25485376,0.0001461,53.2129,196.7009,81.6625,154.2145,-0.0452,-0.01062532,0.0,0 STARLINK-5255,1 54208U 22141BD  23071.58334491 -.01062532  00000-0 -45200-1 0  9992,2 54208  53.2129 196.7009 0001461  81.6625 154.2145 15.25485376  1307,6867.465,94.396,490.334,488.327,0.0
54208.0,STARLINK-5255,PAYLOAD,2023-03-12 22:00:00,15.24515463,3.78e-05,53.2128,195.1663,38.3145,228.8819,-0.03753,-0.00860255,0.0,0 STARLINK-5255,1 54208U 22141BD  23071.91667824 -.00860255  00000-0 -37530-1 0  9992,2 54208  53.2128 195.1663 0000378  38.3145 228.8819 15.24515463 21608,6870.378,94.456,492.502,491.983,0.0
54208.0,STARLINK-5255,PAYLOAD,2023-03-13 00:00:00,15.24338557,2.39e-05,53.2128,194.7824,51.7074,313.0817,-0.035932,-0.00822319,0.0,0 STARLINK-5255,1 54208U 22141BD  23072.00001157 -.00822319  00000-0 -35932-1 0  9997,2 54208  53.2128 194.7824 0000239  51.7074 313.0817 15.24338557  1305,6870.909,94.467,492.939,492.61,0.0
54208.0,STARLINK-5255,PAYLOAD,2023-03-13 14:00:01,15.23211667,0.0001179,53.2127,192.1032,78.0588,248.4986,-0.048456,-0.01063637,0.0,0 STARLINK-5255,1 54208U 22141BD  23072.58334491 -.01063637  00000-0 -48456-1 0  9996,2 54208  53.2127 192.1032 0001179  78.0588 248.4986 15.23211667 21708,6874.298,94.537,496.973,495.352,0.0
54208.0,STARLINK-5255,PAYLOAD,2023-03-13 22:00:00,15.22484158,0.0001294,53.2126,190.5739,76.4546,278.4967,-0.052106,-0.01129109,0.0,0 STARLINK-5255,1 54208U 22141BD  23072.91667824 -.01129109  00000-0 -52106-1 0  9996,2 54208  53.2126 190.5739 0001294  76.4546 278.4967 15.22484158  1309,6876.487,94.582,499.242,497.463,0.0
54208.0,STARLINK-5255,PAYLOAD,2023-03-14 14:00:01,15.20931031,0.0001314,53.2126,187.5213,82.0049,327.0264,-0.051809,-0.01062923,0.0,0 STARLINK-5255,1 54208U 22141BD  23073.58334491 -.01062923  00000-0 -51809-1 0  9990,2 54208  53.2126 187.5213 0001314  82.0049 327.0264 15.20931031 21854,6881.168,94.679,503.937,502.129,0.0
54208.0,STARLINK-5255,PAYLOAD,2023-03-14 22:00:00,15.20201842,0.0001303,53.2125,185.9972,76.9174,357.7699,-0.055471,-0.01124106,0.0,0 STARLINK-5255,1 54208U 22141BD  23073.91667824 -.01124106  00000-0 -55471-1 0  9997,2 54208  53.2125 185.9972 0001303  76.9174 357.7699 15.20201842  1306,6883.368,94.724,506.13,504.336,0.0
54208.0,STARLINK-5255,PAYLOAD,2023-03-15 14:00:01,15.18649118,0.0001479,53.2127,182.9554,77.4212,45.8685,-0.055032,-0.01056671,0.0,0 STARLINK-5255,1 54208U 22141BD  23074.58334491 -.01056671  00000-0 -55032-1 0  9996,2 54208  53.2127 182.9554 0001479  77.4212  45.8685 15.18649118 22003,6888.059,94.821,510.943,508.906,0.0
